CCSDS_OMM_VERS = 2.0
CREATION_DATE  = 
ORIGINATOR     = 

OBJECT_NAME    = ISS OBJECT XW
OBJECT_ID      = 1998-067XW
CENTER_NAME    = EARTH
REF_FRAME      = TEME
TIME_SYSTEM    = UTC
MEAN_ELEMENT_THEORY = SGP/SGP4

EPOCH          = 2026-03-01T08:27:25.709760
MEAN_MOTION    = 15.66113269
ECCENTRICITY   = .00046874
INCLINATION    = 51.6248
RA_OF_ASC_NODE = 107.9716
ARG_OF_PERICENTER = 42.0873
MEAN_ANOMALY   = 318.0482

EPHEMERIS_TYPE = 0
CLASSIFICATION_TYPE = U
NORAD_CAT_ID   = 66910
ELEMENT_SET_NO = 999
REV_AT_EPOCH   = 1387
BSTAR          = .11539589E-2
MEAN_MOTION_DOT = .122188E-2
MEAN_MOTION_DDOT = 0

CCSDS_OMM_VERS = 2.0
CREATION_DATE  = 
ORIGINATOR     = 

OBJECT_NAME    = ISS OBJECT XX
OBJECT_ID      = 1998-067XX
CENTER_NAME    = EARTH
REF_FRAME      = TEME
TIME_SYSTEM    = UTC
MEAN_ELEMENT_THEORY = SGP/SGP4

EPOCH          = 2026-03-01T19:55:36.625728
MEAN_MOTION    = 15.71384697
ECCENTRICITY   = .00069656
INCLINATION    = 51.6226
RA_OF_ASC_NODE = 104.4016
ARG_OF_PERICENTER = 37.9423
MEAN_ANOMALY   = 322.2065

EPHEMERIS_TYPE = 0
CLASSIFICATION_TYPE = U
NORAD_CAT_ID   = 66911
ELEMENT_SET_NO = 999
REV_AT_EPOCH   = 1395
BSTAR          = .15932821E-2
MEAN_MOTION_DOT = .212327E-2
MEAN_MOTION_DDOT = 0

CCSDS_OMM_VERS = 2.0
CREATION_DATE  = 
ORIGINATOR     = 

OBJECT_NAME    = ISS OBJECT XY
OBJECT_ID      = 1998-067XY
CENTER_NAME    = EARTH
REF_FRAME      = TEME
TIME_SYSTEM    = UTC
MEAN_ELEMENT_THEORY = SGP/SGP4

EPOCH          = 2026-03-01T20:16:08.486688
MEAN_MOTION    = 15.62092614
ECCENTRICITY   = .00028015
INCLINATION    = 51.6273
RA_OF_ASC_NODE = 106.7719
ARG_OF_PERICENTER = 47.0626
MEAN_ANOMALY   = 313.0602

EPHEMERIS_TYPE = 0
CLASSIFICATION_TYPE = U
NORAD_CAT_ID   = 66912
ELEMENT_SET_NO = 999
REV_AT_EPOCH   = 1392
BSTAR          = .95752697E-3
MEAN_MOTION_DOT = .8595E-3
MEAN_MOTION_DDOT = 0

CCSDS_OMM_VERS = 2.0
CREATION_DATE  = 
ORIGINATOR     = 

OBJECT_NAME    = ISS OBJECT XZ
OBJECT_ID      = 1998-067XZ
CENTER_NAME    = EARTH
REF_FRAME      = TEME
TIME_SYSTEM    = UTC
MEAN_ELEMENT_THEORY = SGP/SGP4

EPOCH          = 2026-03-01T17:46:16.892256
MEAN_MOTION    = 15.51106476
ECCENTRICITY   = .00096037
INCLINATION    = 51.6323
RA_OF_ASC_NODE = 111.3281
ARG_OF_PERICENTER = 159.6177
MEAN_ANOMALY   = 200.5198

EPHEMERIS_TYPE = 0
CLASSIFICATION_TYPE = U
NORAD_CAT_ID   = 67683
ELEMENT_SET_NO = 999
REV_AT_EPOCH   = 355
BSTAR          = .70810569E-3
MEAN_MOTION_DOT = .41861E-3
MEAN_MOTION_DDOT = 0

CCSDS_OMM_VERS = 2.0
CREATION_DATE  = 
ORIGINATOR     = 

OBJECT_NAME    = GXIBA-1
OBJECT_ID      = 1998-067YA
CENTER_NAME    = EARTH
REF_FRAME      = TEME
TIME_SYSTEM    = UTC
MEAN_ELEMENT_THEORY = SGP/SGP4

EPOCH          = 2026-03-01T12:44:48.522624
MEAN_MOTION    = 15.52893604
ECCENTRICITY   = .00110451
INCLINATION    = 51.6306
RA_OF_ASC_NODE = 112.1796
ARG_OF_PERICENTER = 149.3528
MEAN_ANOMALY   = 210.8109

EPHEMERIS_TYPE = 0
CLASSIFICATION_TYPE = U
NORAD_CAT_ID   = 67684
ELEMENT_SET_NO = 999
REV_AT_EPOCH   = 352
BSTAR          = .11804746E-2
MEAN_MOTION_DOT = .75127E-3
MEAN_MOTION_DDOT = 0

CCSDS_OMM_VERS = 2.0
CREATION_DATE  = 
ORIGINATOR     = 

OBJECT_NAME    = CORAL
OBJECT_ID      = 1998-067YB
CENTER_NAME    = EARTH
REF_FRAME      = TEME
TIME_SYSTEM    = UTC
MEAN_ELEMENT_THEORY = SGP/SGP4

EPOCH          = 2026-03-01T20:47:45.619008
MEAN_MOTION    = 15.51398872
ECCENTRICITY   = .00115635
INCLINATION    = 51.6314
RA_OF_ASC_NODE = 110.6689
ARG_OF_PERICENTER = 156.0444
MEAN_ANOMALY   = 204.1086

EPHEMERIS_TYPE = 0
CLASSIFICATION_TYPE = U
NORAD_CAT_ID   = 67685
ELEMENT_SET_NO = 999
REV_AT_EPOCH   = 357
BSTAR          = .74665449E-3
MEAN_MOTION_DOT = .44685E-3
MEAN_MOTION_DDOT = 0

CCSDS_OMM_VERS = 2.0
CREATION_DATE  = 
ORIGINATOR     = 

OBJECT_NAME    = ISS OBJECT YC
OBJECT_ID      = 1998-067YC
CENTER_NAME    = EARTH
REF_FRAME      = TEME
TIME_SYSTEM    = UTC
MEAN_ELEMENT_THEORY = SGP/SGP4

EPOCH          = 2026-03-01T09:53:56.870592
MEAN_MOTION    = 15.51728286
ECCENTRICITY   = .00076647
INCLINATION    = 51.6316
RA_OF_ASC_NODE = 112.8884
ARG_OF_PERICENTER = 122.7439
MEAN_ANOMALY   = 237.4290

EPHEMERIS_TYPE = 0
CLASSIFICATION_TYPE = U
NORAD_CAT_ID   = 67686
ELEMENT_SET_NO = 999
REV_AT_EPOCH   = 350
BSTAR          = .89125935E-3
MEAN_MOTION_DOT = .54052E-3
MEAN_MOTION_DDOT = 0

CCSDS_OMM_VERS = 2.0
CREATION_DATE  = 
ORIGINATOR     = 

OBJECT_NAME    = LEOPARD
OBJECT_ID      = 1998-067YD
CENTER_NAME    = EARTH
REF_FRAME      = TEME
TIME_SYSTEM    = UTC
MEAN_ELEMENT_THEORY = SGP/SGP4

EPOCH          = 2026-03-01T17:44:03.576192
MEAN_MOTION    = 15.51238778
ECCENTRICITY   = .00076634
INCLINATION    = 51.6315
RA_OF_ASC_NODE = 111.3180
ARG_OF_PERICENTER = 127.4895
MEAN_ANOMALY   = 232.6792

EPHEMERIS_TYPE = 0
CLASSIFICATION_TYPE = U
NORAD_CAT_ID   = 67687
ELEMENT_SET_NO = 999
REV_AT_EPOCH   = 347
BSTAR          = .73455961E-3
MEAN_MOTION_DOT = .4363E-3
MEAN_MOTION_DDOT = 0

CCSDS_OMM_VERS = 2.0
CREATION_DATE  = 
ORIGINATOR     = 

OBJECT_NAME    = ISS OBJECT YE
OBJECT_ID      = 1998-067YE
CENTER_NAME    = EARTH
REF_FRAME      = TEME
TIME_SYSTEM    = UTC
MEAN_ELEMENT_THEORY = SGP/SGP4

EPOCH          = 2026-03-01T09:55:55.287840
MEAN_MOTION    = 15.51553933
ECCENTRICITY   = .00076095
INCLINATION    = 51.6318
RA_OF_ASC_NODE = 112.8976
ARG_OF_PERICENTER = 123.4438
MEAN_ANOMALY   = 236.7280

EPHEMERIS_TYPE = 0
CLASSIFICATION_TYPE = U
NORAD_CAT_ID   = 67688
ELEMENT_SET_NO = 999
REV_AT_EPOCH   = 342
BSTAR          = .83355093E-3
MEAN_MOTION_DOT = .50179E-3
MEAN_MOTION_DDOT = 0

CCSDS_OMM_VERS = 2.0
CREATION_DATE  = 
ORIGINATOR     = 

OBJECT_NAME    = CREW DRAGON 12
OBJECT_ID      = 2026-031A
CENTER_NAME    = EARTH
REF_FRAME      = TEME
TIME_SYSTEM    = UTC
MEAN_ELEMENT_THEORY = SGP/SGP4

EPOCH          = 2026-03-01T20:00:02.826720
MEAN_MOTION    = 15.48387794
ECCENTRICITY   = .00082842
INCLINATION    = 51.6319
RA_OF_ASC_NODE = 111.1961
ARG_OF_PERICENTER = 147.0223
MEAN_ANOMALY   = 213.1284

EPHEMERIS_TYPE = 0
CLASSIFICATION_TYPE = U
NORAD_CAT_ID   = 67796
ELEMENT_SET_NO = 999
REV_AT_EPOCH   = 55485
BSTAR          = .19089077E-3
MEAN_MOTION_DOT = .9867E-4
MEAN_MOTION_DDOT = 0

